STARLINK-11095 [DTC]    
1 59720U 24088N   24153.57046182 -.00001676  00000+0 -62447-5 0  9992
2 59720  53.1626 272.7634 0001569 106.0783 254.0411 15.76707567  4771
STARLINK-31834          
1 59721U 24088P   24153.58334491 -.02194771  00000+0 -47658-1 0  9991
2 59721  53.1597 274.1979 0001155  44.1823   1.9752 15.47495211  4534
STARLINK-31843          
1 59722U 24088Q   24153.58334491 -.00019731  00000+0 -34760-3 0  9994
2 59722  53.1575 274.2141 0001021 125.0909 272.7022 15.49308295  4534
STARLINK-31766          
1 59723U 24088R   24153.58334491 -.02189478  00000+0 -49061-1 0  9991
2 59723  53.1595 274.2375 0000627  76.7342 308.7592 15.46592683  4535
STARLINK-31836          
1 59724U 24088S   24153.58334491 -.02186598  00000+0 -53497-1 0  9990
2 59724  53.1590 274.2654 0000773  77.3987 293.3851 15.44043872  4632
STARLINK-31820          
1 59725U 24088T   24153.58334491  .00010608  00000+0  19865-3 0  9998
2 59725  53.1559 274.2452 0001098  99.9897 283.4350 15.49291191  4532
STARLINK-31642          
1 59726U 24088U   24153.58334491 -.00010580  00000+0 -18244-3 0  9990
2 59726  53.1558 274.2533 0001351 107.9399 271.6437 15.49306125  4530
STARLINK-31827          
1 59727U 24088V   24153.58334491  .00002288  00000+0  49209-4 0  9991
2 59727  53.1561 274.2393 0001115  97.1151 288.2310 15.49293079  4732
SHIYAN 23 (SY-23)       
1 59728U 24089A   24153.57880630  .00001205  00000+0  12967-3 0  9991
2 59728  97.7647 160.5501 0007589 169.9197 190.2175 14.90298546  3053
STARLINK-31472          
1 59730U 24090A   24153.58334491 -.00165991  00000+0 -28752-2 0  9999
2 59730  42.9995 262.7427 0001695 280.8510 152.1835 15.50662887  4253
STARLINK-31817          
1 59731U 24090B   24153.58334491 -.00163112  00000+0 -28244-2 0  9999
2 59731  42.9996 262.7371 0001679 279.1373 155.8144 15.50660984  4319
STARLINK-31841          
1 59732U 24090C   24153.58334491 -.00133254  00000+0 -22990-2 0  9996
2 59732  42.9996 262.7315 0001470 280.4615 156.4093 15.50644479  4312
STARLINK-31833          
1 59733U 24090D   24153.58334491 -.00131267  00000+0 -22642-2 0  9993
2 59733  42.9995 262.7270 0001543 276.7002 162.0884 15.50642602  4251
STARLINK-31849          
1 59734U 24090E   24153.58334491 -.00151340  00000+0 -26169-2 0  9996
2 59734  42.9995 262.7225 0001756 278.6045 162.0985 15.50653632  4310
STARLINK-31661          
1 59735U 24090F   24153.58334491 -.01487106  00000+0 -27468-1 0  9992
2 59735  42.9995 262.7183 0001241 293.4557 149.0929 15.51076706  4254
STARLINK-31707          
1 59736U 24090G   24153.58334491 -.00144546  00000+0 -24974-2 0  9990
2 59736  42.9995 262.7133 0001753 277.1902 167.3471 15.50649237  4317
STARLINK-31821          
1 59737U 24090H   24153.58334491 -.00119486  00000+0 -20579-2 0  9993
2 59737  42.9994 262.7072 0001631 274.5613 171.8954 15.50635205  4253
STARLINK-31819          
1 59738U 24090J   24153.58334491 -.00137423  00000+0 -23723-2 0  9999
2 59738  42.9994 262.7032 0001708 276.6289 171.7428 15.50644566  4252
STARLINK-31726          
1 59739U 24090K   24153.58334491 -.00134187  00000+0 -23155-2 0  9993
2 59739  42.9995 262.6978 0001737 276.8064 173.4823 15.50642596  4313
STARLINK-31759          
1 59740U 24090L   24153.58334491 -.00112977  00000+0 -19442-2 0  9992
2 59740  42.9993 262.6929 0001534 275.4197 176.7878 15.50630879  4313
STARLINK-31818          
1 59741U 24090M   24153.58334491 -.00109116  00000+0 -18768-2 0  9994
2 59741  42.9994 262.6875 0001571 272.9105 181.2142 15.50628253  4292
STARLINK-31816          
1 59742U 24090N   24153.58334491 -.01742963  00000+0 -26419-1 0  9990
2 59742  42.9991 261.9889 0001694 282.0099  92.2257 15.56910117  4294
STARLINK-31809          
1 59743U 24090P   24153.58334491 -.01984831  00000+0 -37162-1 0  9990
2 59743  42.9995 262.6780 0001426 293.4133 164.4819 15.51080419  4200
STARLINK-31779          
1 59744U 24090Q   24153.58334491 -.00114872  00000+0 -19774-2 0  9990
2 59744  42.9995 262.6677 0001622 272.0489 189.7423 15.50630381  4299
STARLINK-31805          
1 59745U 24090R   24153.58334491 -.00117522  00000+0 -20237-2 0  9992
2 59745  42.9995 262.6729 0001683 275.6181 184.2560 15.50631991  4316
STARLINK-31681          
1 59746U 24090S   24153.58334491 -.00610002  00000+0 -11130-1 0  9995
2 59746  42.9994 262.6631 0001416 286.8669 176.8025 15.50819855  4317
STARLINK-31636          
1 59747U 24090T   24153.58334491 -.00109082  00000+0 -18762-2 0  9996
2 59747  42.9995 262.6542 0001949 269.3891 198.1513 15.50627039  4314
STARLINK-31640          
1 59748U 24090U   24153.58334491 -.00108751  00000+0 -18705-2 0  9996
2 59748  42.9994 262.6583 0001691 273.7477 191.8772 15.50626505  4282
STARLINK-31677          
1 59749U 24090V   24153.58334491 -.00090829  00000+0 -15583-2 0  9994
2 59749  42.9995 262.6484 0001616 280.3830 189.0770 15.50616395  4281
CZ-4C R/B               
1 59729U 24089B   24153.57774688  .00007809  00000+0  37015-3 0  9994
2 59729  97.7598 161.3242 0103364 327.1257  32.3572 15.14906926  3101
