OBJECT_NAME,OBJECT_ID,EPOCH,MEAN_MOTION,ECCENTRICITY,INCLINATION,RA_OF_ASC_NODE,ARG_OF_PERICENTER,MEAN_ANOMALY,EPHEMERIS_TYPE,CLASSIFICATION_TYPE,NORAD_CAT_ID,ELEMENT_SET_NO,REV_AT_EPOCH,BSTAR,MEAN_MOTION_DOT,MEAN_MOTION_DDOT
STARLINK-11095 [DTC],2024-088N,2024-06-01T13:41:27.901248,15.76707567,0.0001569,53.1626,272.7634,106.0783,254.0411,0,U,59720,999,477,-6.2447e-06,-1.676e-05,0
STARLINK-31834,2024-088P,2024-06-01T14:00:01.000224,15.47495211,0.0001155,53.1597,274.1979,44.1823,1.9752,0,U,59721,999,453,-0.047658,-0.02194771,0
STARLINK-31843,2024-088Q,2024-06-01T14:00:01.000224,15.49308295,0.0001021,53.1575,274.2141,125.0909,272.7022,0,U,59722,999,453,-0.0003476,-0.00019731,0
STARLINK-31766,2024-088R,2024-06-01T14:00:01.000224,15.46592683,6.27e-05,53.1595,274.2375,76.7342,308.7592,0,U,59723,999,453,-0.049061,-0.02189478,0
STARLINK-31836,2024-088S,2024-06-01T14:00:01.000224,15.44043872,7.73e-05,53.159,274.2654,77.3987,293.3851,0,U,59724,999,463,-0.053497,-0.02186598,0
STARLINK-31820,2024-088T,2024-06-01T14:00:01.000224,15.49291191,0.0001098,53.1559,274.2452,99.9897,283.435,0,U,59725,999,453,0.00019865,0.00010608,0
STARLINK-31642,2024-088U,2024-06-01T14:00:01.000224,15.49306125,0.0001351,53.1558,274.2533,107.9399,271.6437,0,U,59726,999,453,-0.00018244,-0.0001058,0
STARLINK-31827,2024-088V,2024-06-01T14:00:01.000224,15.49293079,0.0001115,53.1561,274.2393,97.1151,288.231,0,U,59727,999,473,4.9209e-05,2.288e-05,0
SHIYAN 23 (SY-23),2024-089A,2024-06-01T13:53:28.864320,14.90298546,0.0007589,97.7647,160.5501,169.9197,190.2175,0,U,59728,999,305,0.00012967,1.205e-05,0
CZ-4C R/B,2024-089B,2024-06-01T13:51:57.330432,15.14906926,0.0103364,97.7598,161.3242,327.1257,32.3572,0,U,59729,999,310,0.00037015,7.809e-05,0
STARLINK-31472,2024-090A,2024-06-01T14:00:01.000224,15.50662887,0.0001695,42.9995,262.7427,280.851,152.1835,0,U,59730,999,425,-0.0028752,-0.00165991,0
STARLINK-31817,2024-090B,2024-06-01T14:00:01.000224,15.50660984,0.0001679,42.9996,262.7371,279.1373,155.8144,0,U,59731,999,431,-0.0028244,-0.00163112,0
STARLINK-31841,2024-090C,2024-06-01T14:00:01.000224,15.50644479,0.000147,42.9996,262.7315,280.4615,156.4093,0,U,59732,999,431,-0.002299,-0.00133254,0
STARLINK-31833,2024-090D,2024-06-01T14:00:01.000224,15.50642602,0.0001543,42.9995,262.727,276.7002,162.0884,0,U,59733,999,425,-0.0022642,-0.00131267,0
STARLINK-31849,2024-090E,2024-06-01T14:00:01.000224,15.50653632,0.0001756,42.9995,262.7225,278.6045,162.0985,0,U,59734,999,431,-0.0026169,-0.0015134,0
STARLINK-31661,2024-090F,2024-06-01T14:00:01.000224,15.51076706,0.0001241,42.9995,262.7183,293.4557,149.0929,0,U,59735,999,425,-0.027468,-0.01487106,0
STARLINK-31707,2024-090G,2024-06-01T14:00:01.000224,15.50649237,0.0001753,42.9995,262.7133,277.1902,167.3471,0,U,59736,999,431,-0.0024974,-0.00144546,0
STARLINK-31821,2024-090H,2024-06-01T14:00:01.000224,15.50635205,0.0001631,42.9994,262.7072,274.5613,171.8954,0,U,59737,999,425,-0.0020579,-0.00119486,0
STARLINK-31819,2024-090J,2024-06-01T14:00:01.000224,15.50644566,0.0001708,42.9994,262.7032,276.6289,171.7428,0,U,59738,999,425,-0.0023723,-0.00137423,0
STARLINK-31726,2024-090K,2024-06-01T14:00:01.000224,15.50642596,0.0001737,42.9995,262.6978,276.8064,173.4823,0,U,59739,999,431,-0.0023155,-0.00134187,0
STARLINK-31759,2024-090L,2024-06-01T14:00:01.000224,15.50630879,0.0001534,42.9993,262.6929,275.4197,176.7878,0,U,59740,999,431,-0.0019442,-0.00112977,0
STARLINK-31818,2024-090M,2024-06-01T14:00:01.000224,15.50628253,0.0001571,42.9994,262.6875,272.9105,181.2142,0,U,59741,999,429,-0.0018768,-0.00109116,0
STARLINK-31816,2024-090N,2024-06-01T14:00:01.000224,15.56910117,0.0001694,42.9991,261.9889,282.0099,92.2257,0,U,59742,999,429,-0.026419,-0.01742963,0
STARLINK-31809,2024-090P,2024-06-01T14:00:01.000224,15.51080419,0.0001426,42.9995,262.678,293.4133,164.4819,0,U,59743,999,420,-0.037162,-0.01984831,0
STARLINK-31779,2024-090Q,2024-06-01T14:00:01.000224,15.50630381,0.0001622,42.9995,262.6677,272.0489,189.7423,0,U,59744,999,429,-0.0019774,-0.00114872,0
STARLINK-31805,2024-090R,2024-06-01T14:00:01.000224,15.50631991,0.0001683,42.9995,262.6729,275.6181,184.256,0,U,59745,999,431,-0.0020237,-0.00117522,0
STARLINK-31681,2024-090S,2024-06-01T14:00:01.000224,15.50819855,0.0001416,42.9994,262.6631,286.8669,176.8025,0,U,59746,999,431,-0.01113,-0.00610002,0
STARLINK-31636,2024-090T,2024-06-01T14:00:01.000224,15.50627039,0.0001949,42.9995,262.6542,269.3891,198.1513,0,U,59747,999,431,-0.0018762,-0.00109082,0
STARLINK-31640,2024-090U,2024-06-01T14:00:01.000224,15.50626505,0.0001691,42.9994,262.6583,273.7477,191.8772,0,U,59748,999,428,-0.0018705,-0.00108751,0
STARLINK-31677,2024-090V,2024-06-01T14:00:01.000224,15.50616395,0.0001616,42.9995,262.6484,280.383,189.077,0,U,59749,999,428,-0.0015583,-0.00090829,0
